H1 CPF 01  gfz 2022 08 15 12  7272 tandemx   
H2 1003001  6202 36605    2022 08 15 12 59 42 2022 08 20 00 00 42   120 1 1  0 0 0
H9
10 0 59808  56142.000000  0   -4432984.836  -3858657.617   3584709.998
10 0 59808  56262.000000  0   -4874312.150  -3986519.484   2785403.447
10 0 59808  56382.000000  0   -5231976.840  -4037681.997   1937044.316
10 0 59808  56502.000000  0   -5498388.634  -4012781.479   1054572.012
10 0 59808  56622.000000  0   -5667593.704  -3913915.259    153530.004
10 0 59808  56742.000000  0   -5735406.990  -3744575.329   -750215.903
10 0 59808  56862.000000  0   -5699509.436  -3509553.537  -1640766.578
10 0 59808  56982.000000  0   -5559505.912  -3214819.489  -2502478.930
10 0 59808  57102.000000  0   -5316943.762  -2867376.092  -3320246.589
10 0 59808  57222.000000  0   -4975292.924  -2475096.890  -4079767.829
10 0 59808  57342.000000  0   -4539888.655  -2046549.139  -4767795.063
10 0 59808  57462.000000  0   -4017838.530  -1590807.726  -5372361.987
10 0 59808  57582.000000  0   -3417896.582  -1117263.595  -5882984.503
10 0 59808  57702.000000  0   -2750308.235   -635431.327  -6290832.119
10 0 59808  57822.000000  0   -2026629.888   -154760.353  -6588869.214
10 0 59808  57942.000000  0   -1259525.887    315546.491  -6771964.598
10 0 59808  58062.000000  0    -462548.794    766703.869  -6836969.315
10 0 59808  58182.000000  0     350094.956   1190503.841  -6782764.732
10 0 59808  58302.000000  0    1163790.950   1579460.433  -6610280.180
10 0 59808  58422.000000  0    1963774.063   1926939.385  -6322481.033
10 0 59808  58542.000000  0    2735391.177   2227270.305  -5924322.970
10 0 59808  58662.000000  0    3464366.031   2475838.988  -5422674.697
10 0 59808  58782.000000  0    4137060.911   2669158.896  -4826210.601
10 0 59808  58902.000000  0    4740734.470   2804921.501  -4145272.923
10 0 59808  59022.000000  0    5263788.629   2882023.113  -3391701.926
10 0 59808  59142.000000  0    5695998.043   2900567.596  -2578637.926
10 0 59808  59262.000000  0    6028720.203   2861845.636  -1720297.762
10 0 59808  59382.000000  0    6255077.791   2768288.224   -831725.755
10 0 59808  59502.000000  0    6370108.758   2623396.477     71472.691
10 0 59808  59622.000000  0    6370879.545   2431648.034    973412.239
10 0 59808  59742.000000  0    6256557.596   2198382.972   1858213.545
10 0 59808  59862.000000  0    6028444.189   1929673.801   2710291.698
10 0 59808  59982.000000  0    5689962.293   1632179.405   3514639.926
10 0 59808  60102.000000  0    5246601.561   1312988.966   4257101.058
10 0 59808  60222.000000  0    4705820.924    979458.995   4924620.276
10 0 59808  60342.000000  0    4076915.099    639048.970   5505474.916
10 0 59808  60462.000000  0    3370845.181    299157.465   5989479.599
10 0 59808  60582.000000  0    2600037.743    -33035.446   6368159.247
10 0 59808  60702.000000  0    1778160.765   -350716.206   6634890.808
10 0 59808  60822.000000  0     919877.839   -647575.053   6785014.362
10 0 59808  60942.000000  0      40583.402   -917930.090   6815910.060
10 0 59808  61062.000000  0    -843873.884  -1156835.000   6727039.856
10 0 59808  61182.000000  0   -1717475.995  -1360169.648   6519955.474
10 0 59808  61302.000000  0   -2564324.004  -1524710.884   6198271.901
10 0 59808  61422.000000  0   -3368925.738  -1648182.865   5767609.532
10 0 59808  61542.000000  0   -4116482.618  -1729288.041   5235503.975
10 0 59808  61662.000000  0   -4793167.446  -1767717.580   4611279.618
10 0 59808  61782.000000  0   -5386387.394  -1764139.724   3905890.563
10 0 59808  61902.000000  0   -5885025.937  -1720165.994   3131730.869
10 0 59808  62022.000000  0   -6279659.490  -1638296.739   2302418.698
10 0 59808  62142.000000  0   -6562746.156  -1521847.916   1432556.129
10 0 59808  62262.000000  0   -6728778.578  -1374859.295    537465.462
10 0 59808  62382.000000  0   -6774395.367  -1201986.159   -367088.512
10 0 59808  62502.000000  0   -6698449.780  -1008377.735  -1265185.305
10 0 59808  62622.000000  0   -6502033.168   -799545.670  -2141037.818
10 0 59808  62742.000000  0   -6188453.841   -581226.385  -2979276.498
10 0 59808  62862.000000  0   -5763172.456   -359241.077  -3765224.594
10 0 59808  62982.000000  0   -5233694.329   -139354.895  -4485157.084
10 0 59808  63102.000000  0   -4609423.674     72859.698  -5126537.533
10 0 59808  63222.000000  0   -3901484.564    272151.868  -5678230.537
10 0 59808  63342.000000  0   -3122511.552    453710.822  -6130685.719
10 0 59808  63462.000000  0   -2286417.088    613271.630  -6476090.469
10 0 59808  63582.000000  0   -1408141.087    747206.468  -6708493.434
10 0 59808  63702.000000  0    -503384.649    852600.377  -6823896.700
10 0 59808  63822.000000  0     411665.403    927310.314  -6820315.469
10 0 59808  63942.000000  0    1320617.601    970005.973  -6697809.523
10 0 59808  64062.000000  0    2207163.473    980192.974  -6458484.546
10 0 59808  64182.000000  0    3055364.476    958217.844  -6106459.616
10 0 59808  64302.000000  0    3849934.383    905254.431  -5647802.796
10 0 59808  64422.000000  0    4576512.413    823271.445  -5090436.871
10 0 59808  64542.000000  0    5221925.413    714982.316  -4444014.534
10 0 59808  64662.000000  0    5774433.463    583778.005  -3719761.767
10 0 59808  64782.000000  0    6223952.449    433643.142  -2930291.835
10 0 59808  64902.000000  0    6562249.902    269057.867  -2089392.589
10 0 59808  65022.000000  0    6783109.696     94886.639  -1211787.984
10 0 59808  65142.000000  0    6882457.783    -83743.120   -312877.947
10 0 59808  65262.000000  0    6858446.830   -261569.193    591536.144
10 0 59808  65382.000000  0    6711497.904   -433327.486   1485536.479
10 0 59808  65502.000000  0    6444296.162   -593885.560   2353377.800
10 0 59808  65622.000000  0    6061740.258   -738373.351   3179774.620
10 0 59808  65742.000000  0    5570845.856   -862307.579   3950177.447
10 0 59808  65862.000000  0    4980609.964   -961706.610   4651033.436
10 0 59808  65982.000000  0    4301835.969  -1033194.095   5270027.693
10 0 59808  66102.000000  0    3546925.264  -1074086.435   5796298.379
10 0 59808  66222.000000  0    2729641.704  -1082464.063   6220623.711
10 0 59808  66342.000000  0    1864853.624  -1057225.324   6535577.962
10 0 59808  66462.000000  0     968258.938   -998121.765   6735656.438
10 0 59808  66582.000000  0      56096.395   -905773.492   6817366.133
10 0 59808  66702.000000  0    -855149.157   -781664.793   6779281.525
10 0 59808  66822.000000  0   -1749043.431   -628120.534   6622067.144
10 0 59808  66942.000000  0   -2609497.570   -448262.858   6348466.502
10 0 59808  67062.000000  0   -3421056.888   -245949.278   5963258.181
10 0 59808  67182.000000  0   -4169180.635    -25693.025   5473178.512
10 0 59808  67302.000000  0   -4840507.694    207433.050   4886809.999
10 0 59808  67422.000000  0   -5423102.362    447906.957   4214436.359
10 0 59808  67542.000000  0   -5906675.345    689881.021   3467865.818
10 0 59808  67662.000000  0   -6282774.570    927315.541   2660226.056
10 0 59808  67782.000000  0   -6544942.935   1154119.832   1805732.814
10 0 59808  67902.000000  0   -6688837.866   1364296.717    919436.127
10 0 59808  68022.000000  0   -6712309.860   1552087.530     16948.318
10 0 59808  68142.000000  0   -6615435.681   1712113.651   -885840.214
10 0 59808  68262.000000  0   -6400506.074   1839510.125  -1773049.605
10 0 59808  68382.000000  0   -6071970.163   1930049.153  -2629097.488
10 0 59808  68502.000000  0   -5636336.525   1980250.423  -3438980.018
10 0 59808  68622.000000  0   -5102033.049   1987474.040  -4188538.614
10 0 59808  68742.000000  0   -4479231.615   1949994.667  -4864706.260
10 0 59808  68862.000000  0   -3779642.739   1867055.775  -5455729.918
10 0 59808  68982.000000  0   -3016286.371   1738903.317  -5951365.685
10 0 59808  69102.000000  0   -2203244.221   1566798.300  -6343046.199
10 0 59808  69222.000000  0   -1355396.375   1353008.266  -6624017.784
10 0 59808  69342.000000  0    -488149.619   1100777.907  -6789444.487
10 0 59808  69462.000000  0     382837.465    814279.902  -6836481.526
10 0 59808  69582.000000  0    1241929.225    498547.425  -6764319.743
10 0 59808  69702.000000  0    2073788.178    159387.471  -6574199.687
10 0 59808  69822.000000  0    2863642.652   -196723.086  -6269391.773
10 0 59808  69942.000000  0    3597545.147   -562756.919  -5855146.452
10 0 59808  70062.000000  0    4262616.156   -931270.192  -5338611.808
10 0 59808  70182.000000  0    4847271.685  -1294548.813  -4728722.623
10 0 59808  70302.000000  0    5341431.395  -1644765.786  -4036057.361
10 0 59808  70422.000000  0    5736701.169  -1974145.274  -3272664.639
10 0 59808  70542.000000  0    6026526.696  -2275130.774  -2451861.052
10 0 59808  70662.000000  0    6206313.565  -2540553.764  -1588002.567
10 0 59808  70782.000000  0    6273510.172  -2763798.244   -696233.734
10 0 59808  70902.000000  0    6227651.589  -2938957.388    207780.873
10 0 59808  71022.000000  0    6070361.953  -3060978.064   1108137.872
10 0 59808  71142.000000  0    5805315.576  -3125789.357   1988983.741
10 0 59808  71262.000000  0    5438154.169  -3130411.202   2834803.670
10 0 59808  71382.000000  0    4976365.445  -3073040.609   3630702.765
10 0 59808  71502.000000  0    4429125.172  -2953111.935   4362674.116
10 0 59808  71622.000000  0    3807109.511  -2771332.441   5017848.185
10 0 59808  71742.000000  0    3122278.558  -2529691.644   5584721.000
10 0 59808  71862.000000  0    2387638.137  -2231442.590   6053353.162
10 0 59808  71982.000000  0    1616987.013  -1881057.807   6415539.317
10 0 59808  72102.000000  0     824653.471  -1484160.798   6664946.101
10 0 59808  72222.000000  0      25226.238  -1047433.955   6797216.817
10 0 59808  72342.000000  0    -766714.457   -578504.569   6810042.240
10 0 59808  72462.000000  0   -1536861.681    -85811.466   6703197.802
10 0 59808  72582.000000  0   -2271439.146    421546.518   6478547.336
99
